ONEWEB-0136             
1 47282U 20100AA  24226.16985340  .00000576  00000+0  15648-2 0  9991
2 47282  87.8938 124.6794 0001508  87.9079 272.2222 13.12443343176387
ONEWEB-0137             
1 47283U 20100AB  24226.20389881 -.00000238  00000+0 -69706-3 0  9997
2 47283  87.8932 124.6944 0001937  79.4914 280.6433 13.12443508176299
ONEWEB-0138             
1 47284U 20100AC  24225.95410643  .00000410  00000+0  11051-2 0  9999
2 47284  87.8932 124.7566 0001829  80.6625 279.4710 13.12441644176343
ONEWEB-0139             
1 47285U 20100AD  24225.68823156 -.00000165  00000+0 -49296-3 0  9999
2 47285  87.8939 124.7818 0001872  76.7837 283.3500 13.12446265176389
ONEWEB-0140             
1 47286U 20100AE  24226.17633159  .00000509  00000+0  13790-2 0  9996
2 47286  87.8933 124.6881 0001730  78.9320 281.2003 13.12442285176403
ONEWEB-0141             
1 47287U 20100AF  24225.45924096 -.00000126  00000+0 -38479-3 0  9999
2 47287  87.8937 124.8430 0002039  76.3814 283.7541 13.12443836176309
ONEWEB-0142             
1 47288U 20100AG  24225.96137180 -.00000486  00000+0 -13868-2 0  9999
2 47288  87.8934 124.7241 0001946  84.3686 275.7664 13.12440700176368
ONEWEB-0143             
1 47289U 20100AH  24225.45775612 -.00000109  00000+0 -33842-3 0  9999
2 47289  87.8936 124.8455 0001862  74.1296 286.0037 13.12444215176274
